RESURS
1 25394U 98043A   08101.73248609 -.00000012  00000-0  12778-4 0  8998
2 25394 098.3941 148.7407 0002387 051.1203 309.0188 14.24156211506841
FENGYUN1
1 25730U 99025A   08100.96524742 -.00000056  00000-0 -81581-5 0 04200
2 25730 098.7221 079.0655 0022387 007.2735 352.8753 14.07724615459363
OKEAN-0
1 25860U 99039A   08100.87101809  .00000072  00000-0  18339-4 0 03388
2 25860 097.7477 094.4525 0001593 092.0536 268.0856 14.73513804469332
NOAA-16
1 26536U 00055A   08100.70825805 -.00000116  00000-0 -37431-4 0 08830
2 26536 099.1536 088.3957 0011312 060.2271 300.0001 14.12475190389102
NOAA-17
1 27453U 02032A   08100.68352143 -.00000007  00000-0  15656-4 0 08780
2 27453 098.5390 167.2774 0010805 310.5687 049.4537 14.23963216301053
NOAA-18
1 28654U 05018A   08100.70233078 -.00000112  00000-0 -37826-4 0 03864
2 28654 098.8636 042.4918 0014725 143.8203 216.3962 14.11150521148817
HUBBLE
1 20580U 90037B   08100.96204573  .00000443  00000-0  21482-4 0 01128
2 20580 028.4687 048.1922 0003517 020.5199 339.5531 15.00363360784724
UARS
1 21701U 91063B   08100.48155591  .00007871  00000-0  11919-3 0 03482
2 21701 056.9717 101.0756 0090027 050.8076 310.0932 15.51214392911835
PO-34
1 25520U 98064B   08100.71949499  .00000499  00000-0  14753-4 0 09695
2 25520 028.4596 277.1581 0005484 255.9005 104.0976 15.17169915522751
ISS
1 25544U 98067A   08101.91978255  .00027459  00000-0  16652-3 0  2843
2 25544 051.6423 003.1310 0000968 019.2532 076.4688 15.77323379537917
OO-38
1 26063U 00004C   08101.69820830 -.00000023  00000-0  12248-4 0  1828
2 26063 100.1971 164.1055 0037053 040.3043 320.0876 14.35831881429881
UWE-1
1 28892U 05043C   08100.66954427  .00000113  00000-0  33444-4 0 00193
2 28892 098.1029 355.9228 0016217 264.7765 095.1569 14.59613485130609
CO-58
1 28895U 05043F   08100.70791408  .00000121  00000-0  35062-4 0 09937
2 28895 098.1063 356.2898 0016736 263.7019 096.2252 14.59655030130494
NCUBE2
1 28897U 05043H   08100.68041129  .00000168  00000-0  44753-4 0 05242
2 28897 098.1034 356.1980 0016254 266.6815 093.2505 14.59824290122772
FCAL
1 29667U 06055J   08101.64675791  .00127815  19625-4  12358-3 0  8870
2 29667 051.6260 311.2837 0004442 096.9881 263.1427 16.11290291 75663
FALCON
1 30776U 07006E   08101.68436906  .00000540  00000-0  42460-4 0  2877
2 30776 035.4336 202.8702 0000194 290.6751 069.3944 15.02948032 59984
MAST
1 31126U 07012K   08100.74157255  .00000130  00000-0  40055-4 0 03017
2 31126 098.0433 167.8944 0094820 183.4669 176.5866 14.53414000052076
