Satellite: RESURS
Catalog number: 25394
Epoch time:      08101.73248609
Element set:     899
Inclination:      098.3941 deg
RA of node:       148.7407 deg
Eccentricity:    0.0002387
Arg of perigee:   051.1203 deg
Mean anomaly:     309.0188 deg
Mean motion:   14.24156211 rev/day
Decay rate:       -1.2e-07 rev/day^2
Epoch rev:           50684
Checksum:              288

Satellite: FENGYUN1
Catalog number: 25730
Epoch time:      08100.96524742
Element set:    0420
Inclination:      098.7221 deg
RA of node:       079.0655 deg
Eccentricity:    0.0022387
Arg of perigee:   007.2735 deg
Mean anomaly:     352.8753 deg
Mean motion:   14.07724615 rev/day
Decay rate:       -5.6e-07 rev/day^2
Epoch rev:           45936
Checksum:              298

Satellite: OKEAN-0
Catalog number: 25860
Epoch time:      08100.87101809
Element set:    0338
Inclination:      097.7477 deg
RA of node:       094.4525 deg
Eccentricity:    0.0001593
Arg of perigee:   092.0536 deg
Mean anomaly:     268.0856 deg
Mean motion:   14.73513804 rev/day
Decay rate:        7.2e-07 rev/day^2
Epoch rev:           46933
Checksum:              307

Satellite: NOAA-16
Catalog number: 26536
Epoch time:      08100.70825805
Element set:    0883
Inclination:      099.1536 deg
RA of node:       088.3957 deg
Eccentricity:    0.0011312
Arg of perigee:   060.2271 deg
Mean anomaly:     300.0001 deg
Mean motion:   14.12475190 rev/day
Decay rate:      -1.16e-06 rev/day^2
Epoch rev:           38910
Checksum:              269

Satellite: NOAA-17
Catalog number: 27453
Epoch time:      08100.68352143
Element set:    0878
Inclination:      098.5390 deg
RA of node:       167.2774 deg
Eccentricity:    0.0010805
Arg of perigee:   310.5687 deg
Mean anomaly:     049.4537 deg
Mean motion:   14.23963216 rev/day
Decay rate:       -7.0e-08 rev/day^2
Epoch rev:           30105
Checksum:              303

Satellite: NOAA-18
Catalog number: 28654
Epoch time:      08100.70233078
Element set:    0386
Inclination:      098.8636 deg
RA of node:       042.4918 deg
Eccentricity:    0.0014725
Arg of perigee:   143.8203 deg
Mean anomaly:     216.3962 deg
Mean motion:   14.11150521 rev/day
Decay rate:      -1.12e-06 rev/day^2
Epoch rev:           14881
Checksum:              285

/EX
SB KEPS @ AMSAT  $ORB08101.M
Orbital Elements  08101.MISC

HR AMSAT ORBITAL ELEMENTS FOR MANNED AND MISCELLANEOUS SATELLITES
FROM WA5QGD FORT WORTH,TX April 10, 2008
Send Subscribe/unsubscribe to KEPS at 
http://www.amsat.org/mailman/listinfo/keps
BID: ORB08101.M
TO ALL RADIO AMATEURS BT

Satellite: HUBBLE
Catalog number: 20580
Epoch time:      08100.96204573
Element set:    0112
Inclination:      028.4687 deg
RA of node:       048.1922 deg
Eccentricity:    0.0003517
Arg of perigee:   020.5199 deg
Mean anomaly:     339.5531 deg
Mean motion:   15.00363360 rev/day
Decay rate:       4.43e-06 rev/day^2
Epoch rev:           78472
Checksum:              271

Satellite: UARS
Catalog number: 21701
Epoch time:      08100.48155591
Element set:    0348
Inclination:      056.9717 deg
RA of node:       101.0756 deg
Eccentricity:    0.0090027
Arg of perigee:   050.8076 deg
Mean anomaly:     310.0932 deg
Mean motion:   15.51214392 rev/day
Decay rate:      7.871e-05 rev/day^2
Epoch rev:           91183
Checksum:              276

Satellite: PO-34
Catalog number: 25520
Epoch time:      08100.71949499
Element set:    0969
Inclination:      028.4596 deg
RA of node:       277.1581 deg
Eccentricity:    0.0005484
Arg of perigee:   255.9005 deg
Mean anomaly:     104.0976 deg
Mean motion:   15.17169915 rev/day
Decay rate:       4.99e-06 rev/day^2
Epoch rev:           52275
Checksum:              343

Satellite: ISS
Catalog number: 25544
Epoch time:      08101.91978255
Element set:     284
Inclination:      051.6423 deg
RA of node:       003.1310 deg
Eccentricity:    0.0000968
Arg of perigee:   019.2532 deg
Mean anomaly:     076.4688 deg
Mean motion:   15.77323379 rev/day
Decay rate:     2.7459e-04 rev/day^2
Epoch rev:           53791
Checksum:              309

Satellite: OO-38
Catalog number: 26063
Epoch time:      08101.69820830
Element set:     182
Inclination:      100.1971 deg
RA of node:       164.1055 deg
Eccentricity:    0.0037053
Arg of perigee:   040.3043 deg
Mean anomaly:     320.0876 deg
Mean motion:   14.35831881 rev/day
Decay rate:       -2.3e-07 rev/day^2
Epoch rev:           42988
Checksum:              274

Satellite: UWE-1
Catalog number: 28892
Epoch time:      08100.66954427
Element set:    0019
Inclination:      098.1029 deg
RA of node:       355.9228 deg
Eccentricity:    0.0016217
Arg of perigee:   264.7765 deg
Mean anomaly:     095.1569 deg
Mean motion:   14.59613485 rev/day
Decay rate:       1.13e-06 rev/day^2
Epoch rev:           13060
Checksum:              315

Satellite: CO-58
Catalog number: 28895
Epoch time:      08100.70791408
Element set:    0993
Inclination:      098.1063 deg
RA of node:       356.2898 deg
Eccentricity:    0.0016736
Arg of perigee:   263.7019 deg
Mean anomaly:     096.2252 deg
Mean motion:   14.59655030 rev/day
Decay rate:       1.21e-06 rev/day^2
Epoch rev:           13049
Checksum:              325

Satellite: NCUBE2
Catalog number: 28897
Epoch time:      08100.68041129
Element set:    0524
Inclination:      098.1034 deg
RA of node:       356.1980 deg
Eccentricity:    0.0016254
Arg of perigee:   266.6815 deg
Mean anomaly:     093.2505 deg
Mean motion:   14.59824290 rev/day
Decay rate:       1.68e-06 rev/day^2
Epoch rev:           12277
Checksum:              307

Satellite: FCAL
Catalog number: 29667
Epoch time:      08101.64675791
Element set:     887
Inclination:      051.6260 deg
RA of node:       311.2837 deg
Eccentricity:    0.0004442
Arg of perigee:   096.9881 deg
Mean anomaly:     263.1427 deg
Mean motion:   16.11290291 rev/day
Decay rate:    1.27815e-03 rev/day^2
Epoch rev:            7566
Checksum:              319

Satellite: FALCON
Catalog number: 30776
Epoch time:      08101.68436906
Element set:     287
Inclination:      035.4336 deg
RA of node:       202.8702 deg
Eccentricity:    0.0000194
Arg of perigee:   290.6751 deg
Mean anomaly:     069.3944 deg
Mean motion:   15.02948032 rev/day
Decay rate:       5.40e-06 rev/day^2
Epoch rev:            5998
Checksum:              299

Satellite: MAST
Catalog number: 31126
Epoch time:      08100.74157255
Element set:    0301
Inclination:      098.0433 deg
RA of node:       167.8944 deg
Eccentricity:    0.0094820
Arg of perigee:   183.4669 deg
Mean anomaly:     176.5866 deg
Mean motion:   14.53414000 rev/day
Decay rate:       1.30e-06 rev/day^2
Epoch rev:           05207
Checksum:              276

